{
    "links": {
        "self": "http://www.neowsapp.com/rest/v1/neo/3581557?api_key=iIulBulltgU6a56xZRHN4H3l9WmuAYTsLGpBGhQ2"
    },
    "id": "3581557",
    "neo_reference_id": "3581557",
    "name": "(2011 TL5)",
    "designation": "2011 TL5",
    "nasa_jpl_url": "http://ssd.jpl.nasa.gov/sbdb.cgi?sstr=3581557",
    "absolute_magnitude_h": 21.4,
    "estimated_diameter": {
        "kilometers": {
            "estimated_diameter_min": 0.1394938229,
            "estimated_diameter_max": 0.3119176705
        },
        "meters": {
            "estimated_diameter_min": 139.4938229344,
            "estimated_diameter_max": 311.9176705226
        },
        "miles": {
            "estimated_diameter_min": 0.0866774163,
            "estimated_diameter_max": 0.1938165949
        },
        "feet": {
            "estimated_diameter_min": 457.6569140361,
            "estimated_diameter_max": 1023.3519701574
        }
    },
    "is_potentially_hazardous_asteroid": false,
    "close_approach_data": [
        {
            "close_approach_date": "1989-09-19",
            "close_approach_date_full": "1989-Sep-19 08:24",
            "epoch_date_close_approach": 622196640000,
            "relative_velocity": {
                "kilometers_per_second": "14.0658756117",
                "kilometers_per_hour": "50637.1522022294",
                "miles_per_hour": "31463.9571558797"
            },
            "miss_distance": {
                "astronomical": "0.4470273167",
                "lunar": "173.8936261963",
                "kilometers": "66874334.410135429",
                "miles": "41553784.5278657602"
            },
            "orbiting_body": "Earth"
        },
        {
            "close_approach_date": "2011-09-27",
            "close_approach_date_full": "2011-Sep-27 05:27",
            "epoch_date_close_approach": 1317101220000,
            "relative_velocity": {
                "kilometers_per_second": "11.7654448252",
                "kilometers_per_hour": "42355.6013708471",
                "miles_per_hour": "26318.1235295688"
            },
            "miss_distance": {
                "astronomical": "0.2999425221",
                "lunar": "116.6776410969",
                "kilometers": "44870762.428587927",
                "miles": "27881398.8954783126"
            },
            "orbiting_body": "Earth"
        },
        {
            "close_approach_date": "2028-09-20",
            "close_approach_date_full": "2028-Sep-20 14:57",
            "epoch_date_close_approach": 1853074620000,
            "relative_velocity": {
                "kilometers_per_second": "13.425649741",
                "kilometers_per_hour": "48332.3390677116",
                "miles_per_hour": "30031.8359057122"
            },
            "miss_distance": {
                "astronomical": "0.3892649644",
                "lunar": "151.4240711516",
                "kilometers": "58233209.539865828",
                "miles": "36184438.5133633064"
            },
            "orbiting_body": "Earth"
        }
    ],
    "orbital_data": {
        "orbit_id": "13",
        "orbit_determination_date": "2017-04-06 08:52:30",
        "first_observation_date": "2011-10-03",
        "last_observation_date": "2011-10-30",
        "data_arc_in_days": 27,
        "observations_used": 61,
        "orbit_uncertainty": "6",
        "minimum_orbit_intersection": ".29415",
        "jupiter_tisserand_invariant": "3.910",
        "epoch_osculation": "2459000.5",
        "eccentricity": ".3052223027068958",
        "semi_major_axis": "1.81052015100595",
        "inclination": "22.69276498743006",
        "ascending_node_longitude": "13.33223468233328",
        "orbital_period": "889.8226804260684",
        "perihelion_distance": "1.257909021418677",
        "perihelion_argument": "324.898166993638",
        "aphelion_distance": "2.363131280593223",
        "perihelion_time": "2459356.479212801012",
        "mean_anomaly": "215.9797143549971",
        "mean_motion": ".4045749877128592",
        "equinox": "J2000",
        "orbit_class": {
            "orbit_class_type": "AMO",
            "orbit_class_description": "Near-Earth asteroid orbits similar to that of 1221 Amor",
            "orbit_class_range": "1.017 AU < q (perihelion) < 1.3 AU"
        }
    },
    "is_sentry_object": false
}